{
  "norad_id": 64766,
  "name": "STARLINK-34645",
  "history": [
    {
      "epoch": "2026-03-28T20:54:27.315936",
      "apogee_km": 476.22552529561926,
      "perigee_km": 474.13170030959645,
      "latitude_deg": 24.559032263929456,
      "longitude_deg": 20.230351040139794,
      "semi_major_axis_km": 6853.315612802608,
      "eccentricity": 0.00015276,
      "inclination_deg": 53.1581,
      "raan_deg": 154.001,
      "arg_perigee_deg": 73.8509,
      "mean_anomaly_deg": 286.266,
      "mean_motion_rev_day": 15.3021221
    }
  ]
}