{"fetched_at":"2026-03-30T06:02:59Z","count":15439,"tles":[{"name":"STARLINK-34645","line1":"1 64766U 25147M   26087.87114949  .00015403  00000+0  53089-3 0  9994","line2":"2 64766  53.1581 154.0010 0001527  73.8509 286.2660 15.30212210 41688","category":"Starlink"}]}